{
  "norad_id": 68962,
  "name": "STARLINK-36765",
  "history": [
    {
      "epoch": "2026-05-12T20:00:01.999008Z",
      "apogee_km": 328.5405400157988,
      "perigee_km": 327.33344669699545,
      "latitude_deg": 10.965485749847577,
      "longitude_deg": 169.34279366539786,
      "height_km": 327.81234497575014,
      "semi_major_axis_km": 6706.073993356397,
      "eccentricity": 9e-05,
      "inclination_deg": 53.1592,
      "raan_deg": 331.654,
      "arg_perigee_deg": 76.0521,
      "mean_anomaly_deg": 297.7217,
      "mean_motion_rev_day": 15.80884897
    },
    {
      "epoch": "2026-05-13T20:00:01.999008Z",
      "apogee_km": 328.5850924161268,
      "perigee_km": 327.30959517393694,
      "latitude_deg": -39.167383392379634,
      "longitude_deg": 117.67997185708846,
      "height_km": 341.2161952837068,
      "semi_major_axis_km": 6706.084343795032,
      "eccentricity": 9.51e-05,
      "inclination_deg": 53.1585,
      "raan_deg": 326.6426,
      "arg_perigee_deg": 83.3002,
      "mean_anomaly_deg": 224.9272,
      "mean_motion_rev_day": 15.80881237
    },
    {
      "epoch": "2026-05-14T00:00:02.000160Z",
      "apogee_km": 328.49827142883896,
      "perigee_km": 327.39927809207074,
      "latitude_deg": 2.06922996738832,
      "longitude_deg": -87.49520503980308,
      "height_km": 328.69359229454454,
      "semi_major_axis_km": 6706.085774760454,
      "eccentricity": 8.194e-05,
      "inclination_deg": 53.1582,
      "raan_deg": 325.8077,
      "arg_perigee_deg": 79.949,
      "mean_anomaly_deg": 97.3698,
      "mean_motion_rev_day": 15.80880731
    }
  ]
}